{"fetched_at":"2026-07-13T18:16:58.106Z","source":"https://celestrak.org/NORAD/elements/gp.php?NAME=HULIANWANG&FORMAT=JSON","constellation":"guowang","records":[{"OBJECT_NAME":"HULIANWANG DIGUI-76","OBJECT_ID":"2025-187D","EPOCH":"2026-07-13T05:59:48.417216","CLASSIFICATION_TYPE":"U","MEAN_MOTION":13.29323694,"ECCENTRICITY":0.00001059,"INCLINATION":50.0008,"RA_OF_ASC_NODE":112.5221,"ARG_OF_PERICENTER":331.3257,"MEAN_ANOMALY":28.7609,"EPHEMERIS_TYPE":0,"NORAD_CAT_ID":65308,"ELEMENT_SET_NO":999,"REV_AT_EPOCH":4316,"BSTAR":0.000008711538,"MEAN_MOTION_DOT":-0.0000012,"MEAN_MOTION_DDOT":0},{"OBJECT_NAME":"HULIANWANG DIGUI-77","OBJECT_ID":"2025-187E","EPOCH":"2026-07-13T05:47:37.676256","CLASSIFICATION_TYPE":"U","MEAN_MOTION":13.29323604,"ECCENTRICITY":0.00001423,"INCLINATION":50.0043,"RA_OF_ASC_NODE":112.5654,"ARG_OF_PERICENTER":210.6291,"MEAN_ANOMALY":149.4573,"EPHEMERIS_TYPE":0,"NORAD_CAT_ID":65309,"ELEMENT_SET_NO":999,"REV_AT_EPOCH":4316,"BSTAR":0.000018643121,"MEAN_MOTION_DOT":-0.00000115,"MEAN_MOTION_DDOT":0},{"OBJECT_NAME":"HULIANWANG DIGUI-78","OBJECT_ID":"2025-187F","EPOCH":"2026-07-13T06:35:54.127392","CLASSIFICATION_TYPE":"U","MEAN_MOTION":13.29322698,"ECCENTRICITY":0.00001507,"INCLINATION":50.0108,"RA_OF_ASC_NODE":112.2479,"ARG_OF_PERICENTER":306.2058,"MEAN_ANOMALY":53.88,"EPHEMERIS_TYPE":0,"NORAD_CAT_ID":65310,"ELEMENT_SET_NO":999,"REV_AT_EPOCH":4317,"BSTAR":0.000031683276,"MEAN_MOTION_DOT":-0.00000109,"MEAN_MOTION_DDOT":0},{"OBJECT_NAME":"HULIANWANG DIGUI-79","OBJECT_ID":"2025-187G","EPOCH":"2026-07-13T06:11:43.410912","CLASSIFICATION_TYPE":"U","MEAN_MOTION":13.29319495,"ECCENTRICITY":0.00002075,"INCLINATION":50.0038,"RA_OF_ASC_NODE":112.6397,"ARG_OF_PERICENTER":303.3428,"MEAN_ANOMALY":56.7424,"EPHEMERIS_TYPE":0,"NORAD_CAT_ID":65311,"ELEMENT_SET_NO":999,"REV_AT_EPOCH":4316,"BSTAR":0.000009176028,"MEAN_MOTION_DOT":-0.0000012,"MEAN_MOTION_DDOT":0},{"OBJECT_NAME":"HULIANWANG DIGUI-80","OBJECT_ID":"2025-187H","EPOCH":"2026-07-13T07:23:52.899360","CLASSIFICATION_TYPE":"U","MEAN_MOTION":13.29322697,"ECCENTRICITY":0.00001313,"INCLINATION":50.0028,"RA_OF_ASC_NODE":112.2166,"ARG_OF_PERICENTER":214.3108,"MEAN_ANOMALY":145.7756,"EPHEMERIS_TYPE":0,"NORAD_CAT_ID":65312,"ELEMENT_SET_NO":999,"REV_AT_EPOCH":4317,"BSTAR":0.000013664109,"MEAN_MOTION_DOT":-0.00000118,"MEAN_MOTION_DDOT":0},{"OBJECT_NAME":"HULIANWANG DIGUI-81","OBJECT_ID":"2025-187J","EPOCH":"2026-07-13T06:59:55.593888","CLASSIFICATION_TYPE":"U","MEAN_MOTION":13.29319561,"ECCENTRICITY":0.00001598,"INCLINATION":50.0068,"RA_OF_ASC_NODE":112.2324,"ARG_OF_PERICENTER":296.7556,"MEAN_ANOMALY":63.33,"EPHEMERIS_TYPE":0,"NORAD_CAT_ID":65313,"ELEMENT_SET_NO":999,"REV_AT_EPOCH":4318,"BSTAR":0.000035822043,"MEAN_MOTION_DOT":-0.00000107,"MEAN_MOTION_DDOT":0},{"OBJECT_NAME":"HULIANWANG DIGUI-87","OBJECT_ID":"2025-231A","EPOCH":"2026-07-12T22:50:23.802432","CLASSIFICATION_TYPE":"U","MEAN_MOTION":13.29328055,"ECCENTRICITY":0.00005347,"INCLINATION":50.0001,"RA_OF_ASC_NODE":83.4278,"ARG_OF_PERICENTER":340.717,"MEAN_ANOMALY":19.3682,"EPHEMERIS_TYPE":0,"NORAD_CAT_ID":65995,"ELEMENT_SET_NO":999,"REV_AT_EPOCH":3631,"BSTAR":0.000029719449,"MEAN_MOTION_DOT":-0.0000011,"MEAN_MOTION_DDOT":0},{"OBJECT_NAME":"HULIANWANG DIGUI-88","OBJECT_ID":"2025-231B","EPOCH":"2026-07-12T21:14:11.313888","CLASSIFICATION_TYPE":"U","MEAN_MOTION":13.29323689,"ECCENTRICITY":0.00005481,"INCLINATION":49.9987,"RA_OF_ASC_NODE":83.7143,"ARG_OF_PERICENTER":325.9023,"MEAN_ANOMALY":34.1814,"EPHEMERIS_TYPE":0,"NORAD_CAT_ID":65996,"ELEMENT_SET_NO":999,"REV_AT_EPOCH":3630,"BSTAR":0.000039936401,"MEAN_MOTION_DOT":-0.00000105,"MEAN_MOTION_DDOT":0},{"OBJECT_NAME":"HULIANWANG DIGUI-89","OBJECT_ID":"2025-231C","EPOCH":"2026-07-12T22:38:20.440896","CLASSIFICATION_TYPE":"U","MEAN_MOTION":13.29327902,"ECCENTRICITY":0.00006061,"INCLINATION":49.9964,"RA_OF_ASC_NODE":83.3107,"ARG_OF_PERICENTER":332.0191,"MEAN_ANOMALY":28.0648,"EPHEMERIS_TYPE":0,"NORAD_CAT_ID":65997,"ELEMENT_SET_NO":999,"REV_AT_EPOCH":3631,"BSTAR":0.000026337601,"MEAN_MOTION_DOT":-0.00000112,"MEAN_MOTION_DDOT":0},{"OBJECT_NAME":"HULIANWANG DIGUI-90","OBJECT_ID":"2025-231D","EPOCH":"2026-07-13T05:39:26.409312","CLASSIFICATION_TYPE":"U","MEAN_MOTION":13.29326319,"ECCENTRICITY":0.000058,"INCLINATION":49.9998,"RA_OF_ASC_NODE":82.2507,"ARG_OF_PERICENTER":330.4689,"MEAN_ANOMALY":29.615,"EPHEMERIS_TYPE":0,"NORAD_CAT_ID":65998,"ELEMENT_SET_NO":999,"REV_AT_EPOCH":3635,"BSTAR":0.000026644,"MEAN_MOTION_DOT":-0.00000112,"MEAN_MOTION_DDOT":0},{"OBJECT_NAME":"HULIANWANG DIGUI-91","OBJECT_ID":"2025-231E","EPOCH":"2026-07-12T22:14:22.392384","CLASSIFICATION_TYPE":"U","MEAN_MOTION":13.29326861,"ECCENTRICITY":0.00005581,"INCLINATION":50.0015,"RA_OF_ASC_NODE":83.3277,"ARG_OF_PERICENTER":327.5832,"MEAN_ANOMALY":32.5005,"EPHEMERIS_TYPE":0,"NORAD_CAT_ID":65999,"ELEMENT_SET_NO":999,"REV_AT_EPOCH":3631,"BSTAR":0.000006967255,"MEAN_MOTION_DOT":-0.00000121,"MEAN_MOTION_DDOT":0}]}
