HULIANWANG DIGUI-76     
1 65308U 25187D   26194.24986594 -.00000120  00000+0  87115-5 0  9994
2 65308  50.0008 112.5221 0000105 331.3257  28.7609 13.29323694 43169
HULIANWANG DIGUI-77     
1 65309U 25187E   26194.24140829 -.00000115  00000+0  18643-4 0  9991
2 65309  50.0043 112.5654 0000142 210.6291 149.4573 13.29323604 43169
HULIANWANG DIGUI-78     
1 65310U 25187F   26194.27493203 -.00000109  00000+0  31683-4 0  9995
2 65310  50.0108 112.2479 0000150 306.2058  53.8800 13.29322698 43171
HULIANWANG DIGUI-79     
1 65311U 25187G   26194.25814133 -.00000120  00000+0  91760-5 0  9999
2 65311  50.0038 112.6397 0000207 303.3428  56.7424 13.29319495 43163
HULIANWANG DIGUI-80     
1 65312U 25187H   26194.30825115 -.00000118  00000+0  13664-4 0  9991
2 65312  50.0028 112.2166 0000131 214.3108 145.7756 13.29322697 43171
HULIANWANG DIGUI-81     
1 65313U 25187J   26194.29161567 -.00000107  00000+0  35822-4 0  9992
2 65313  50.0068 112.2324 0000159 296.7556  63.3300 13.29319561 43180
HULIANWANG DIGUI-87     
1 65995U 25231A   26193.95166438 -.00000110  00000+0  29719-4 0  9994
2 65995  50.0001  83.4278 0000534 340.7170  19.3682 13.29328055 36318
HULIANWANG DIGUI-88     
1 65996U 25231B   26193.88485317 -.00000105  00000+0  39936-4 0  9993
2 65996  49.9987  83.7143 0000548 325.9023  34.1814 13.29323689 36309
HULIANWANG DIGUI-89     
1 65997U 25231C   26193.94329214 -.00000112  00000+0  26338-4 0  9994
2 65997  49.9964  83.3107 0000606 332.0191  28.0648 13.29327902 36311
HULIANWANG DIGUI-90     
1 65998U 25231D   26194.23572233 -.00000112  00000+0  26644-4 0  9999
2 65998  49.9998  82.2507 0000579 330.4689  29.6150 13.29326319 36354
HULIANWANG DIGUI-91     
1 65999U 25231E   26193.92664806 -.00000121  00000+0  69673-5 0  9993
2 65999  50.0015  83.3277 0000558 327.5832  32.5005 13.29326861 36318
